{"type": "FeatureCollection", "features": [ {"type": "Feature", "properties": {"norad_id": 39122, "name": "EUTELSAT 117 WEST A", "group": "eutelsat", "lat": 0.011040047986943136, "lon": 130.72471774400339, "alt_km": 35794.14248146385, "timestamp": "2025-12-06T11:28:10.700607+00:00", "meta": {"OBJECT_NAME": "EUTELSAT 117 WEST A", "OBJECT_ID": "2013-012A", "EPOCH": "2025-12-05T21:42:03.267072", "MEAN_MOTION": 1.00269631, "ECCENTRICITY": 0.00031482, "INCLINATION": 0.0164, "RA_OF_ASC_NODE": 321.5177, "ARG_OF_PERICENTER": 293.2936, "MEAN_ANOMALY": 28.8634, "EPHEMERIS_TYPE": 0, "CLASSIFICATION_TYPE": "U", "NORAD_CAT_ID": 39122, "ELEMENT_SET_NO": 999, "REV_AT_EPOCH": 4649, "BSTAR": 0, "MEAN_MOTION_DOT": -3e-08, "MEAN_MOTION_DDOT": 0}, "tle": {"line1": "1 39122U 13012A   25339.90420448 -.00000003  00000+0  00000+0 0  9999", "line2": "2 39122   0.0164 321.5177 0003148 293.2936  28.8634  1.00269631 46498"}}, "geometry": {"type": "Point", "coordinates": [130.72471774400339, 0.011040047986943136]}}, {"type": "Feature", "properties": {"norad_id": 39163, "name": "EUTELSAT 7B", "group": "eutelsat", "lat": -0.08764111021827946, "lon": -105.50547645755438, "alt_km": 35776.37371445598, "timestamp": "2025-12-06T11:28:10.700620+00:00", "meta": {"OBJECT_NAME": "EUTELSAT 7B", "OBJECT_ID": "2013-022A", "EPOCH": "2025-12-05T22:17:22.382592", "MEAN_MOTION": 1.00270215, "ECCENTRICITY": 0.00044143, "INCLINATION": 0.0685, "RA_OF_ASC_NODE": 6.4751, "ARG_OF_PERICENTER": 305.2782, "MEAN_ANOMALY": 104.5558, "EPHEMERIS_TYPE": 0, "CLASSIFICATION_TYPE": "U", "NORAD_CAT_ID": 39163, "ELEMENT_SET_NO": 999, "REV_AT_EPOCH": 4601, "BSTAR": 0, "MEAN_MOTION_DOT": 5.7e-07, "MEAN_MOTION_DDOT": 0}, "tle": {"line1": "1 39163U 13022A   25339.92873128  .00000057  00000+0  00000+0 0  9992", "line2": "2 39163   0.0685   6.4751 0004414 305.2782 104.5558  1.00270215 46013"}}, "geometry": {"type": "Point", "coordinates": [-105.50547645755438, -0.08764111021827946]}}, {"type": "Feature", "properties": {"norad_id": 39612, "name": "EXPRESS-AT1", "group": "eutelsat", "lat": -0.005186719931677998, "lon": -56.44541956941886, "alt_km": 35787.58908313643, "timestamp": "2025-12-06T11:28:10.700632+00:00", "meta": {"OBJECT_NAME": "EXPRESS-AT1", "OBJECT_ID": "2014-010A", "EPOCH": "2025-12-05T21:42:38.692800", "MEAN_MOTION": 1.00271318, "ECCENTRICITY": 6.089e-05, "INCLINATION": 0.0155, "RA_OF_ASC_NODE": 295.9635, "ARG_OF_PERICENTER": 243.441, "MEAN_ANOMALY": 277.2087, "EPHEMERIS_TYPE": 0, "CLASSIFICATION_TYPE": "U", "NORAD_CAT_ID": 39612, "ELEMENT_SET_NO": 999, "REV_AT_EPOCH": 4288, "BSTAR": 0, "MEAN_MOTION_DOT": 8.8e-07, "MEAN_MOTION_DDOT": 0}, "tle": {"line1": "1 39612U 14010A   25339.90461450  .00000088  00000+0  00000+0 0  9992", "line2": "2 39612   0.0155 295.9635 0000608 243.4410 277.2087  1.00271318 42883"}}, "geometry": {"type": "Point", "coordinates": [-56.44541956941886, -0.005186719931677998]}}, {"type": "Feature", "properties": {"norad_id": 39613, "name": "EXPRESS-AT2", "group": "eutelsat", "lat": 0.03400397654673684, "lon": 27.413179391053394, "alt_km": 35788.213910530336, "timestamp": "2025-12-06T11:28:10.700644+00:00", "meta": {"OBJECT_NAME": "EXPRESS-AT2", "OBJECT_ID": "2014-010B", "EPOCH": "2025-12-05T21:12:36.853632", "MEAN_MOTION": 1.0026964, "ECCENTRICITY": 0.00014139, "INCLINATION": 0.0202, "RA_OF_ASC_NODE": 342.2731, "ARG_OF_PERICENTER": 301.1418, "MEAN_ANOMALY": 249.5228, "EPHEMERIS_TYPE": 0, "CLASSIFICATION_TYPE": "U", "NORAD_CAT_ID": 39613, "ELEMENT_SET_NO": 999, "REV_AT_EPOCH": 4256, "BSTAR": 0, "MEAN_MOTION_DOT": 0, "MEAN_MOTION_DDOT": 0}, "tle": {"line1": "1 39613U 14010B   25339.88375988  .00000000  00000+0  00000+0 0  9994", "line2": "2 39613   0.0202 342.2731 0001413 301.1418 249.5228  1.00269640 42564"}}, "geometry": {"type": "Point", "coordinates": [27.413179391053394, 0.03400397654673684]}}, {"type": "Feature", "properties": {"norad_id": 39773, "name": "EUTELSAT 3B", "group": "eutelsat", "lat": -0.08062129364890355, "lon": -109.33498898936945, "alt_km": 35767.22151652877, "timestamp": "2025-12-06T11:28:10.700656+00:00", "meta": {"OBJECT_NAME": "EUTELSAT 3B", "OBJECT_ID": "2014-030A", "EPOCH": "2025-12-05T22:16:07.502304", "MEAN_MOTION": 1.00271437, "ECCENTRICITY": 0.0004754, "INCLINATION": 0.0644, "RA_OF_ASC_NODE": 9, "ARG_OF_PERICENTER": 221.7183, "MEAN_ANOMALY": 181.3853, "EPHEMERIS_TYPE": 0, "CLASSIFICATION_TYPE": "U", "NORAD_CAT_ID": 39773, "ELEMENT_SET_NO": 999, "REV_AT_EPOCH": 4212, "BSTAR": 0, "MEAN_MOTION_DOT": 2.9e-07, "MEAN_MOTION_DDOT": 0}, "tle": {"line1": "1 39773U 14030A   25339.92786461  .00000029  00000+0  00000+0 0  9991", "line2": "2 39773   0.0644   9.0000 0004754 221.7183 181.3853  1.00271437 42121"}}, "geometry": {"type": "Point", "coordinates": [-109.33498898936945, -0.08062129364890355]}}, {"type": "Feature", "properties": {"norad_id": 40425, "name": "EUTELSAT 115 WEST B", "group": "eutelsat", "lat": -0.0034588988777609266, "lon": 132.6823305010797, "alt_km": 35785.318608423484, "timestamp": "2025-12-06T11:28:10.700668+00:00", "meta": {"OBJECT_NAME": "EUTELSAT 115 WEST B", "OBJECT_ID": "2015-010B", "EPOCH": "2025-12-05T21:42:40.706784", "MEAN_MOTION": 1.00271075, "ECCENTRICITY": 4.108e-05, "INCLINATION": 0.0148, "RA_OF_ASC_NODE": 147.2879, "ARG_OF_PERICENTER": 288.3386, "MEAN_ANOMALY": 210.1252, "EPHEMERIS_TYPE": 0, "CLASSIFICATION_TYPE": "U", "NORAD_CAT_ID": 40425, "ELEMENT_SET_NO": 999, "REV_AT_EPOCH": 3945, "BSTAR": 0, "MEAN_MOTION_DOT": -1.6e-07, "MEAN_MOTION_DDOT": 0}, "tle": {"line1": "1 40425U 15010B   25339.90463781 -.00000016  00000+0  00000+0 0  9998", "line2": "2 40425   0.0148 147.2879 0000410 288.3386 210.1252  1.00271075 39458"}}, "geometry": {"type": "Point", "coordinates": [132.6823305010797, -0.0034588988777609266]}}, {"type": "Feature", "properties": {"norad_id": 40875, "name": "EUTELSAT 8 WEST B", "group": "eutelsat", "lat": -0.08433637306301518, "lon": -120.45238942465959, "alt_km": 35769.50220685903, "timestamp": "2025-12-06T11:28:10.700680+00:00", "meta": {"OBJECT_NAME": "EUTELSAT 8 WEST B", "OBJECT_ID": "2015-039B", "EPOCH": "2025-12-05T22:13:07.788576", "MEAN_MOTION": 1.0027157, "ECCENTRICITY": 0.00041156, "INCLINATION": 0.0647, "RA_OF_ASC_NODE": 352.8633, "ARG_OF_PERICENTER": 264.0555, "MEAN_ANOMALY": 143.3492, "EPHEMERIS_TYPE": 0, "CLASSIFICATION_TYPE": "U", "NORAD_CAT_ID": 40875, "ELEMENT_SET_NO": 999, "REV_AT_EPOCH": 3771, "BSTAR": 0, "MEAN_MOTION_DOT": -5.6e-07, "MEAN_MOTION_DDOT": 0}, "tle": {"line1": "1 40875U 15039B   25339.92578459 -.00000056  00000+0  00000+0 0  9993", "line2": "2 40875   0.0647 352.8633 0004115 264.0555 143.3492  1.00271570 37718"}}, "geometry": {"type": "Point", "coordinates": [-120.45238942465959, -0.08433637306301518]}}, {"type": "Feature", "properties": {"norad_id": 41310, "name": "EUTELSAT 9B", "group": "eutelsat", "lat": -0.02661159178805568, "lon": -103.46612734108706, "alt_km": 35764.99859299408, "timestamp": "2025-12-06T11:28:10.700692+00:00", "meta": {"OBJECT_NAME": "EUTELSAT 9B", "OBJECT_ID": "2016-005A", "EPOCH": "2025-12-05T22:17:59.823168", "MEAN_MOTION": 1.0027216, "ECCENTRICITY": 0.00050241, "INCLINATION": 0.0726, "RA_OF_ASC_NODE": 75.7145, "ARG_OF_PERICENTER": 191.28, "MEAN_ANOMALY": 151.4745, "EPHEMERIS_TYPE": 0, "CLASSIFICATION_TYPE": "U", "NORAD_CAT_ID": 41310, "ELEMENT_SET_NO": 999, "REV_AT_EPOCH": 3617, "BSTAR": 0, "MEAN_MOTION_DOT": 7.1e-07, "MEAN_MOTION_DDOT": 0}, "tle": {"line1": "1 41310U 16005A   25339.92916462  .00000071  00000+0  00000+0 0  9998", "line2": "2 41310   0.0726  75.7145 0005024 191.2800 151.4745  1.00272160 36170"}}, "geometry": {"type": "Point", "coordinates": [-103.46612734108706, -0.02661159178805568]}}, {"type": "Feature", "properties": {"norad_id": 41382, "name": "EUTELSAT 65 WEST A", "group": "eutelsat", "lat": -0.018404850082131035, "lon": -177.6931440503262, "alt_km": 35784.87004385782, "timestamp": "2025-12-06T11:28:10.700704+00:00", "meta": {"OBJECT_NAME": "EUTELSAT 65 WEST A", "OBJECT_ID": "2016-014A", "EPOCH": "2025-12-05T21:56:46.855680", "MEAN_MOTION": 1.00269793, "ECCENTRICITY": 0.00028746, "INCLINATION": 0.0495, "RA_OF_ASC_NODE": 352.8072, "ARG_OF_PERICENTER": 270.9209, "MEAN_ANOMALY": 75.2231, "EPHEMERIS_TYPE": 0, "CLASSIFICATION_TYPE": "U", "NORAD_CAT_ID": 41382, "ELEMENT_SET_NO": 999, "REV_AT_EPOCH": 3559, "BSTAR": 0, "MEAN_MOTION_DOT": -2.67e-06, "MEAN_MOTION_DDOT": 0}, "tle": {"line1": "1 41382U 16014A   25339.91443120 -.00000267  00000+0  00000+0 0  9990", "line2": "2 41382   0.0495 352.8072 0002874 270.9209  75.2231  1.00269793 35594"}}, "geometry": {"type": "Point", "coordinates": [-177.6931440503262, -0.018404850082131035]}}, {"type": "Feature", "properties": {"norad_id": 41589, "name": "EUTELSAT 117 WEST B", "group": "eutelsat", "lat": -0.00770740959881559, "lon": 130.53391361281706, "alt_km": 35785.88084360875, "timestamp": "2025-12-06T11:28:10.700734+00:00", "meta": {"OBJECT_NAME": "EUTELSAT 117 WEST B", "OBJECT_ID": "2016-038B", "EPOCH": "2025-12-05T16:33:57.002976", "MEAN_MOTION": 1.00266571, "ECCENTRICITY": 3.902e-05, "INCLINATION": 0.0079, "RA_OF_ASC_NODE": 160.8925, "ARG_OF_PERICENTER": 335.2257, "MEAN_ANOMALY": 70.1092, "EPHEMERIS_TYPE": 0, "CLASSIFICATION_TYPE": "U", "NORAD_CAT_ID": 41589, "ELEMENT_SET_NO": 999, "REV_AT_EPOCH": 3472, "BSTAR": 0, "MEAN_MOTION_DOT": -1e-08, "MEAN_MOTION_DDOT": 0}, "tle": {"line1": "1 41589U 16038B   25339.69024309 -.00000001  00000+0  00000+0 0  9990", "line2": "2 41589   0.0079 160.8925 0000390 335.2257  70.1092  1.00266571 34728"}}, "geometry": {"type": "Point", "coordinates": [130.53391361281706, -0.00770740959881559]}}]}